H1 CPF  1  MCC 2022  4  5 15  5951 larets
H2  0304206 5557    27944 2022 04 04 23 45 00 2022 04 09 23 57 00   180 1 1  0 0 0
H9
10 0 59675  4860.000000 0     -6899168.713     -1389080.044       498481.380
10 0 59675  5040.000000 0     -6920226.689     -1103360.443      -839155.876
10 0 59675  5220.000000 0     -6680713.358      -780233.608     -2145953.566
10 0 59675  5400.000000 0     -6189007.437      -438265.725     -3373991.033
10 0 59675  5580.000000 0     -5463208.797       -96332.418     -4478423.881
10 0 59675  5760.000000 0     -4530376.312       227330.194     -5419132.212
10 0 59675  5940.000000 0     -3425419.706       516014.554     -6162146.078
10 0 59675  6120.000000 0     -2189711.153       755326.624     -6680804.360
10 0 59675  6300.000000 0      -869492.448       933835.905     -6956625.128
10 0 59675  6480.000000 0       485858.668      1043570.594     -6979882.821
10 0 59675  6660.000000 0      1825640.502      1080343.099     -6749895.642
10 0 59675  6840.000000 0      3099678.420      1043899.415     -6275032.265
10 0 59675  7020.000000 0      4260162.279       937889.195     -5572424.445
10 0 59675  7200.000000 0      5263411.927       769656.680     -4667397.679
10 0 59675  7380.000000 0      6071524.867       549860.695     -3592626.878
10 0 59675  7560.000000 0      6653842.799       291935.018     -2387021.933
10 0 59675  7740.000000 0      6988174.753        11408.997     -1094369.150
10 0 59675  7920.000000 0      7061712.231      -274883.339       238240.038
10 0 59675  8100.000000 0      6871579.334      -549667.635      1562131.937
10 0 59675  8280.000000 0      6424985.637      -796126.185      2828857.330
10 0 59675  8460.000000 0      5738961.371      -998779.479      3992005.015
10 0 59675  8640.000000 0      4839687.282     -1144305.257      5008933.721
10 0 59675  8820.000000 0      3761458.377     -1222254.470      5842352.700
10 0 59675  9000.000000 0      2545331.901     -1225624.495      6461688.037
10 0 59675  9180.000000 0      1237527.702     -1151267.929      6844189.737
10 0 59675  9360.000000 0      -112353.214     -1000119.330      6975751.456
10 0 59675  9540.000000 0     -1453224.859      -777227.347      6851418.188
10 0 59675  9720.000000 0     -2734454.754      -491591.642      6475575.835
10 0 59675  9900.000000 0     -3907785.776      -155807.198      5861823.154
10 0 59675 10080.000000 0     -4929185.637       214472.733      5032522.242
10 0 59675 10260.000000 0     -5760556.338       601236.462      4018022.017
10 0 59675 10440.000000 0     -6371227.030       984950.233      2855568.668
10 0 59675 10620.000000 0     -6739160.841      1345495.804      1587936.421
10 0 59675 10800.000000 0     -6851816.613      1663162.791       261821.768
10 0 59675 10980.000000 0     -6706612.391      1919644.430     -1073937.846
10 0 59675 11160.000000 0     -6310957.071      2098980.576     -2370235.482
10 0 59675 11340.000000 0     -5681856.213      2188398.627     -3579565.004
10 0 59675 11520.000000 0     -4845113.384      2179007.174     -4657805.733
10 0 59675 11700.000000 0     -3834181.610      2066305.068     -5565832.899
10 0 59675 11880.000000 0     -2688743.222      1850489.353     -6270894.175
10 0 59675 12060.000000 0     -1453097.041      1536554.859     -6747719.934
10 0 59675 12240.000000 0      -174421.259      1134185.322     -6979343.836
10 0 59675 12420.000000 0      1099011.079       657446.099     -6957626.513
10 0 59675 12600.000000 0      2319612.624       124293.001     -6683496.618
10 0 59675 12780.000000 0      3442216.434      -444092.248     -6166901.249
10 0 59675 12960.000000 0      4425709.911     -1024118.335     -5426467.751
10 0 59675 13140.000000 0      5234523.596     -1590729.745     -4488887.059
10 0 59675 13320.000000 0      5839934.796     -2118454.584     -3388022.178
10 0 59675 13500.000000 0      6221131.371     -2582514.509     -2163748.718
10 0 59675 13680.000000 0      6365984.998     -2959950.651      -860553.343
10 0 59675 13860.000000 0      6271490.068     -3230711.878       474066.573
10 0 59675 14040.000000 0      5943840.186     -3378650.874      1791344.863
10 0 59675 14220.000000 0      5398127.367     -3392373.742      3043062.529
10 0 59675 14400.000000 0      4657668.644     -3265893.580      4183351.651
10 0 59675 14580.000000 0      3753002.486     -2999052.886      5170404.588
10 0 59675 14760.000000 0      2720605.182     -2597698.278      5968022.817
10 0 59675 14940.000000 0      1601387.450     -2073594.128      6546941.441
10 0 59675 15120.000000 0       439047.805     -1444083.533      6885886.517
10 0 59675 15300.000000 0      -721650.052      -731510.670      6972338.532
10 0 59675 15480.000000 0     -1836608.194        37575.815      6802985.294
10 0 59675 15660.000000 0     -2864076.013       833412.062      6383858.480
10 0 59675 15840.000000 0     -3766229.981      1624170.898      5730148.081
10 0 59675 16020.000000 0     -4510600.286      2377238.107      4865693.268
10 0 59675 16200.000000 0     -5071292.803      3060570.329      3822150.742
10 0 59675 16380.000000 0     -5429947.984      3644077.231      2637852.316
10 0 59675 16560.000000 0     -5576391.088      4100964.702      1356390.436
10 0 59675 16740.000000 0     -5508939.772      4408973.732        24975.331
10 0 59675 16920.000000 0     -5234343.055      4551441.757     -1307368.019
10 0 59675 17100.000000 0     -4767356.771      4518131.473     -2591678.234
10 0 59675 17280.000000 0     -4129973.727      4305778.129     -3780924.189
10 0 59675 17460.000000 0     -3350358.009      3918327.716     -4831761.338
10 0 59675 17640.000000 0     -2461554.790      3366867.645     -5706100.007
10 0 59675 17820.000000 0     -1500054.675      2669267.924     -6372436.352
10 0 59675 18000.000000 0      -504276.537      1849554.592     -6806915.597
10 0 59675 18180.000000 0       486962.743       937048.811     -6994100.292
10 0 59675 18360.000000 0      1435932.319       -34687.737     -6927446.944
10 0 59675 18540.000000 0      2307387.503     -1029070.356     -6609492.915
10 0 59675 18720.000000 0      3069841.933     -2007836.380     -6051751.476
10 0 59675 18900.000000 0      3696680.827     -2932478.050     -5274327.163
10 0 59675 19080.000000 0      4167089.332     -3765731.878     -4305252.728
10 0 59675 19260.000000 0      4466757.052     -4473070.616     -3179543.052
10 0 59675 19440.000000 0      4588334.749     -5024137.730     -1937993.843
10 0 59675 19620.000000 0      4531622.113     -5394068.594      -625744.497
10 0 59675 19800.000000 0      4303463.063     -5564628.262       709354.031
10 0 59675 19980.000000 0      3917347.997     -5525100.296      2018502.028
10 0 59675 20160.000000 0      3392737.140     -5272874.446      3253770.793
10 0 59675 20340.000000 0      2754136.198     -4813700.072      4369893.319
10 0 59675 20520.000000 0      2029976.166     -4161592.098      5325950.118
10 0 59675 20700.000000 0      1251354.067     -3338393.886      6086881.107
10 0 59675 20880.000000 0       450693.971     -2373018.811      6624766.454
10 0 59675 21060.000000 0      -339608.512     -1300408.988      6919830.477
10 0 59675 21240.000000 0     -1088497.463      -160256.805      6961151.158
10 0 59675 21420.000000 0     -1767479.135      1004471.517      6747062.382
10 0 59675 21600.000000 0     -2351715.077      2149160.066      6285233.566
10 0 59675 21780.000000 0     -2820947.530      3229261.052      5592424.674
10 0 59675 21960.000000 0     -3160225.656      4202051.209      4693918.697
10 0 59675 22140.000000 0     -3360407.498      5028363.739      3622635.808
10 0 59675 22320.000000 0     -3418411.184      5674223.473      2417942.611
10 0 59675 22500.000000 0     -3337198.932      6112302.578      1124190.097
10 0 59675 22680.000000 0     -3125492.952      6323120.452      -210960.562
10 0 59675 22860.000000 0     -2797236.266      6295927.541     -1538358.240
10 0 59675 23040.000000 0     -2370824.290      6029213.105     -2809250.949
10 0 59675 23220.000000 0     -1868144.722      5530803.354     -3977137.667
10 0 59675 23400.000000 0     -1313493.393      4817568.124     -4999490.398
10 0 59675 23580.000000 0      -732428.270      3914763.154     -5839284.622
10 0 59675 23760.000000 0      -150616.819      2855055.557     -6466289.361
10 0 59675 23940.000000 0       407272.575      1677277.955     -6858081.126
10 0 59675 24120.000000 0       918585.098       424976.958     -7000761.717
10 0 59675 24300.000000 0      1363567.940      -855189.844     -6889383.898
10 0 59675 24480.000000 0      1726105.847     -2115159.723     -6528082.332
10 0 59675 24660.000000 0      1994285.253     -3307219.900     -5929919.051
10 0 59675 24840.000000 0      2160776.725     -4385774.344     -5116453.445
10 0 59675 25020.000000 0      2223022.860     -5309074.328     -4117025.389
10 0 59675 25200.000000 0      2183223.972     -6040842.196     -2967764.629
10 0 59675 25380.000000 0      2048120.364     -6551736.145     -1710346.269
10 0 59675 25560.000000 0      1828574.725     -6820584.138      -390514.845
10 0 59675 25740.000000 0      1538972.954     -6835317.365       943576.406
10 0 59675 25920.000000 0      1196467.400     -6593545.683      2243143.542
10 0 59675 26100.000000 0       820099.627     -6102740.989      3460594.916
10 0 59675 26280.000000 0       429845.902     -5380007.548      4551311.361
10 0 59675 26460.000000 0        45636.040     -4451461.013      5475304.150
10 0 59675 26640.000000 0      -313603.266     -3351245.471      6198689.135
10 0 59675 26820.000000 0      -630832.665     -2120233.677      6694920.487
10 0 59675 27000.000000 0      -891674.536      -804477.931      6945741.768
10 0 59675 27180.000000 0     -1085046.280       546525.544      6941844.549
10 0 59675 27360.000000 0     -1203629.116      1881708.193      6683215.424
10 0 59675 27540.000000 0     -1244151.907      3150369.412      6179158.548
10 0 59675 27720.000000 0     -1207481.926      4304121.471      5447992.902
99
